start=new Date('2022-09-25T00:00:00.000Z').valueOf();
sats=[{"RCS_SIZE":"MEDIUM","EPHEMERIS_TYPE":"0","GP_ID":"213404236","NORAD_CAT_ID":"47752","RA_OF_ASC_NODE":"111.4640","REF_FRAME":"TEME","DECAY_DATE":null,"COUNTRY_CODE":"US","INCLINATION":"53.0530","APOAPSIS":"548.181","MEAN_MOTION_DDOT":"0.0000000000000","ELEMENT_SET_NO":"999","OBJECT_ID":"2021-017AG","REV_AT_EPOCH":"8765","MEAN_MOTION_DOT":"0.00001661","SEMIMAJOR_AXIS":"6925.362","TIME_SYSTEM":"UTC","ECCENTRICITY":"0.00013780","FILE":"3582616","TLE_LINE2":"2 47752  53.0530 111.4640 0001378  83.7099 276.4046 15.06395757 87658","PERIAPSIS":"546.272","PERIOD":"95.592","ARG_OF_PERICENTER":"83.7099","CENTER_NAME":"EARTH","MEAN_ELEMENT_THEORY":"SGP4","MEAN_ANOMALY":"276.4046","SITE":"AFETR","MEAN_MOTION":"15.06395757","OBJECT_TYPE":"PAYLOAD","BSTAR":"0.00013040000000","CLASSIFICATION_TYPE":"U","EPOCH":"2022-09-24T19:11:31.369632","TLE_LINE1":"1 47752U 21017AG  22267.79966863  .00001661  00000-0  13040-3 0  9994","OBJECT_NAME":"STARLINK-2169","LAUNCH_DATE":"2021-03-04"},{"TLE_LINE2":"2 47753  53.0542 116.2840 0001335  73.8096 286.3040 15.06406007 87584","FILE":"3582616","ECCENTRICITY":"0.00013350","TIME_SYSTEM":"UTC","SEMIMAJOR_AXIS":"6925.330","MEAN_MOTION_DOT":"0.00001229","REV_AT_EPOCH":"8758","LAUNCH_DATE":"2021-03-04","OBJECT_NAME":"STARLINK-2170","TLE_LINE1":"1 47753U 21017AH  22267.84159259  .00001229  00000-0  10139-3 0  9990","EPOCH":"2022-09-24T20:11:53.599776","CLASSIFICATION_TYPE":"U","BSTAR":"0.00010139000000","OBJECT_TYPE":"PAYLOAD","MEAN_MOTION":"15.06406007","SITE":"AFETR","PERIOD":"95.592","MEAN_ANOMALY":"286.3040","MEAN_ELEMENT_THEORY":"SGP4","CENTER_NAME":"EARTH","ARG_OF_PERICENTER":"73.8096","PERIAPSIS":"546.271","RA_OF_ASC_NODE":"116.2840","NORAD_CAT_ID":"47753","GP_ID":"213403485","EPHEMERIS_TYPE":"0","RCS_SIZE":"LARGE","ELEMENT_SET_NO":"999","OBJECT_ID":"2021-017AH","APOAPSIS":"548.120","MEAN_MOTION_DDOT":"0.0000000000000","INCLINATION":"53.0542","COUNTRY_CODE":"US","REF_FRAME":"TEME","DECAY_DATE":null},{"MEAN_MOTION_DOT":"0.00001259","REV_AT_EPOCH":"8755","TIME_SYSTEM":"UTC","SEMIMAJOR_AXIS":"6925.373","TLE_LINE2":"2 47754  53.0526 116.1163 0001449  79.2671 280.8481 15.06392057 87553","FILE":"3582616","ECCENTRICITY":"0.00014490","CENTER_NAME":"EARTH","PERIOD":"95.593","MEAN_ELEMENT_THEORY":"SGP4","ARG_OF_PERICENTER":"79.2671","MEAN_ANOMALY":"280.8481","PERIAPSIS":"546.234","SITE":"AFETR","CLASSIFICATION_TYPE":"U","BSTAR":"0.00010340000000","OBJECT_TYPE":"PAYLOAD","MEAN_MOTION":"15.06392057","LAUNCH_DATE":"2021-03-04","OBJECT_NAME":"STARLINK-2171","TLE_LINE1":"1 47754U 21017AJ  22267.87846220  .00001259  00000-0  10340-3 0  9992","EPOCH":"2022-09-24T21:04:59.134080","EPHEMERIS_TYPE":"0","RCS_SIZE":"LARGE","NORAD_CAT_ID":"47754","GP_ID":"213403735","RA_OF_ASC_NODE":"116.1163","REF_FRAME":"TEME","DECAY_DATE":null,"INCLINATION":"53.0526","COUNTRY_CODE":"US","ELEMENT_SET_NO":"999","OBJECT_ID":"2021-017AJ","MEAN_MOTION_DDOT":"0.0000000000000","APOAPSIS":"548.241"},{"SEMIMAJOR_AXIS":"6925.350","TIME_SYSTEM":"UTC","ECCENTRICITY":"0.00016150","FILE":"3582616","TLE_LINE2":"2 47756  53.0550 116.1357 0001615  75.6436 284.4732 15.06399519 87594","REV_AT_EPOCH":"8759","MEAN_MOTION_DOT":"0.00001109","MEAN_MOTION":"15.06399519","OBJECT_TYPE":"PAYLOAD","BSTAR":"0.00009334200000","CLASSIFICATION_TYPE":"U","TLE_LINE1":"1 47756U 21017AL  22267.87476758  .00001109  00000-0  93342-4 0  9997","EPOCH":"2022-09-24T20:59:39.918912","OBJECT_NAME":"STARLINK-2174","LAUNCH_DATE":"2021-03-04","PERIAPSIS":"546.097","PERIOD":"95.592","MEAN_ANOMALY":"284.4732","CENTER_NAME":"EARTH","MEAN_ELEMENT_THEORY":"SGP4","ARG_OF_PERICENTER":"75.6436","SITE":"AFETR","RA_OF_ASC_NODE":"116.1357","RCS_SIZE":"LARGE","EPHEMERIS_TYPE":"0","GP_ID":"213403986","NORAD_CAT_ID":"47756","COUNTRY_CODE":"US","INCLINATION":"53.0550","MEAN_MOTION_DDOT":"0.0000000000000","APOAPSIS":"548.333","OBJECT_ID":"2021-017AL","ELEMENT_SET_NO":"999","REF_FRAME":"TEME","DECAY_DATE":null},{"EPHEMERIS_TYPE":"0","RCS_SIZE":"LARGE","NORAD_CAT_ID":"47757","GP_ID":"213404737","RA_OF_ASC_NODE":"116.1884","DECAY_DATE":null,"REF_FRAME":"TEME","INCLINATION":"53.0531","COUNTRY_CODE":"US","ELEMENT_SET_NO":"999","OBJECT_ID":"2021-017AM","APOAPSIS":"548.182","MEAN_MOTION_DDOT":"0.0000000000000","MEAN_MOTION_DOT":"0.00001478","REV_AT_EPOCH":"8753","TIME_SYSTEM":"UTC","SEMIMAJOR_AXIS":"6925.355","TLE_LINE2":"2 47757  53.0531 116.1884 0001389  75.9720 284.1423 15.06397919 87536","FILE":"3582616","ECCENTRICITY":"0.00013890","PERIOD":"95.592","MEAN_ELEMENT_THEORY":"SGP4","MEAN_ANOMALY":"284.1423","CENTER_NAME":"EARTH","ARG_OF_PERICENTER":"75.9720","PERIAPSIS":"546.258","SITE":"AFETR","CLASSIFICATION_TYPE":"U","BSTAR":"0.00011812000000","OBJECT_TYPE":"PAYLOAD","MEAN_MOTION":"15.06397919","LAUNCH_DATE":"2021-03-04","OBJECT_NAME":"STARLINK-2175","EPOCH":"2022-09-24T20:38:26.091744","TLE_LINE1":"1 47757U 21017AM  22267.86002421  .00001478  00000-0  11812-3 0  9999"},{"PERIOD":"95.592","CENTER_NAME":"EARTH","ARG_OF_PERICENTER":"82.3115","MEAN_ELEMENT_THEORY":"SGP4","MEAN_ANOMALY":"277.8047","PERIAPSIS":"546.166","SITE":"AFETR","BSTAR":"0.00008524600000","CLASSIFICATION_TYPE":"U","MEAN_MOTION":"15.06397587","OBJECT_TYPE":"PAYLOAD","LAUNCH_DATE":"2021-03-04","EPOCH":"2022-09-24T21:24:52.857216","TLE_LINE1":"1 47760U 21017AQ  22267.89227844  .00000988  00000-0  85246-4 0  9992","OBJECT_NAME":"STARLINK-2178","REV_AT_EPOCH":"8743","MEAN_MOTION_DOT":"0.00000988","SEMIMAJOR_AXIS":"6925.356","TIME_SYSTEM":"UTC","TLE_LINE2":"2 47760  53.0537 126.0553 0001524  82.3115 277.8047 15.06397587 87431","FILE":"3582616","ECCENTRICITY":"0.00015240","DECAY_DATE":null,"REF_FRAME":"TEME","INCLINATION":"53.0537","COUNTRY_CODE":"US","OBJECT_ID":"2021-017AQ","ELEMENT_SET_NO":"999","APOAPSIS":"548.276","MEAN_MOTION_DDOT":"0.0000000000000","RCS_SIZE":"LARGE","EPHEMERIS_TYPE":"0","NORAD_CAT_ID":"47760","GP_ID":"213402985","RA_OF_ASC_NODE":"126.0553"},{"RA_OF_ASC_NODE":"116.2121","EPHEMERIS_TYPE":"0","RCS_SIZE":"LARGE","GP_ID":"213403235","NORAD_CAT_ID":"47761","COUNTRY_CODE":"US","INCLINATION":"53.0540","MEAN_MOTION_DDOT":"0.0000000000000","APOAPSIS":"548.116","ELEMENT_SET_NO":"999","OBJECT_ID":"2021-017AR","REF_FRAME":"TEME","DECAY_DATE":null,"TIME_SYSTEM":"UTC","SEMIMAJOR_AXIS":"6925.364","ECCENTRICITY":"0.00012820","FILE":"3582616","TLE_LINE2":"2 47761  53.0540 116.2121 0001282  90.8105 269.3030 15.06395117 87549","MEAN_MOTION_DOT":"0.00001482","REV_AT_EPOCH":"8754","OBJECT_TYPE":"PAYLOAD","MEAN_MOTION":"15.06395117","CLASSIFICATION_TYPE":"U","BSTAR":"0.00011838000000","OBJECT_NAME":"STARLINK-2179","EPOCH":"2022-09-24T20:33:08.246880","TLE_LINE1":"1 47761U 21017AR  22267.85634545  .00001482  00000-0  11838-3 0  9994","LAUNCH_DATE":"2021-03-04","PERIAPSIS":"546.341","CENTER_NAME":"EARTH","PERIOD":"95.592","ARG_OF_PERICENTER":"90.8105","MEAN_ELEMENT_THEORY":"SGP4","MEAN_ANOMALY":"269.3030","SITE":"AFETR"},{"ARG_OF_PERICENTER":"68.5474","PERIOD":"95.592","MEAN_ELEMENT_THEORY":"SGP4","MEAN_ANOMALY":"291.5693","CENTER_NAME":"EARTH","PERIAPSIS":"546.035","SITE":"AFETR","BSTAR":"0.00009478700000","CLASSIFICATION_TYPE":"U","MEAN_MOTION":"15.06407175","OBJECT_TYPE":"PAYLOAD","LAUNCH_DATE":"2021-03-04","EPOCH":"2022-09-24T21:10:56.847360","TLE_LINE1":"1 47762U 21017AS  22267.88260240  .00001131  00000-0  94787-4 0  9991","OBJECT_NAME":"STARLINK-2180","REV_AT_EPOCH":"8735","MEAN_MOTION_DOT":"0.00001131","SEMIMAJOR_AXIS":"6925.327","TIME_SYSTEM":"UTC","TLE_LINE2":"2 47762  53.0548 131.1145 0001670  68.5474 291.5693 15.06407175 87351","FILE":"3582616","ECCENTRICITY":"0.00016700","REF_FRAME":"TEME","DECAY_DATE":null,"INCLINATION":"53.0548","COUNTRY_CODE":"US","ELEMENT_SET_NO":"999","OBJECT_ID":"2021-017AS","APOAPSIS":"548.348","MEAN_MOTION_DDOT":"0.0000000000000","RCS_SIZE":"LARGE","EPHEMERIS_TYPE":"0","NORAD_CAT_ID":"47762","GP_ID":"213404487","RA_OF_ASC_NODE":"131.1145"},{"APOAPSIS":"548.210","MEAN_MOTION_DDOT":"0.0000000000000","OBJECT_ID":"2021-017AT","ELEMENT_SET_NO":"999","COUNTRY_CODE":"US","INCLINATION":"53.0520","REF_FRAME":"TEME","DECAY_DATE":null,"RA_OF_ASC_NODE":"121.0274","GP_ID":"213404237","NORAD_CAT_ID":"47763","EPHEMERIS_TYPE":"0","RCS_SIZE":"LARGE","OBJECT_NAME":"STARLINK-2181","EPOCH":"2022-09-24T21:33:29.973312","TLE_LINE1":"1 47763U 21017AT  22267.89826358  .00000953  00000-0  82886-4 0  9999","LAUNCH_DATE":"2021-03-04","OBJECT_TYPE":"PAYLOAD","MEAN_MOTION":"15.06401375","CLASSIFICATION_TYPE":"U","BSTAR":"0.00008288600000","SITE":"AFETR","PERIAPSIS":"546.209","PERIOD":"95.592","MEAN_ELEMENT_THEORY":"SGP4","MEAN_ANOMALY":"279.0299","ARG_OF_PERICENTER":"81.0854","CENTER_NAME":"EARTH","ECCENTRICITY":"0.00014450","FILE":"3582616","TLE_LINE2":"2 47763  53.0520 121.0274 0001445  81.0854 279.0299 15.06401375 87477","TIME_SYSTEM":"UTC","SEMIMAJOR_AXIS":"6925.344","MEAN_MOTION_DOT":"0.00000953","REV_AT_EPOCH":"8747"},{"DECAY_DATE":null,"REF_FRAME":"TEME","COUNTRY_CODE":"US","INCLINATION":"53.0539","MEAN_MOTION_DDOT":"0.0000000000000","APOAPSIS":"548.088","OBJECT_ID":"2021-017AU","ELEMENT_SET_NO":"999","RCS_SIZE":"LARGE","EPHEMERIS_TYPE":"0","GP_ID":"213403486","NORAD_CAT_ID":"47764","RA_OF_ASC_NODE":"130.8648","PERIAPSIS":"546.346","PERIOD":"95.592","MEAN_ELEMENT_THEORY":"SGP4","MEAN_ANOMALY":"282.5818","CENTER_NAME":"EARTH","ARG_OF_PERICENTER":"77.5311","SITE":"AFETR","MEAN_MOTION":"15.06398805","OBJECT_TYPE":"PAYLOAD","BSTAR":"0.00016741000000","CLASSIFICATION_TYPE":"U","TLE_LINE1":"1 47764U 21017AU  22267.93420761  .00002213  00000-0  16741-3 0  9990","EPOCH":"2022-09-24T22:25:15.537504","OBJECT_NAME":"STARLINK-2182","LAUNCH_DATE":"2021-03-04","REV_AT_EPOCH":"8739","MEAN_MOTION_DOT":"0.00002213","SEMIMAJOR_AXIS":"6925.352","TIME_SYSTEM":"UTC","ECCENTRICITY":"0.00012580","FILE":"3582616","TLE_LINE2":"2 47764  53.0539 130.8648 0001258  77.5311 282.5818 15.06398805 87391"}];
